{"type":"FeatureCollection","features":[{"type":"Feature","properties":{"name":"Central Park"},"geometry":{"type":"MultiPolygon","coordinates":[[[[-73.9577346065369,40.80026634044721],[-73.95775946096337,40.80024913291277],[-73.95781173150353,40.800218836748215],[-73.9578672786202,40.80019211854051],[-73.95792567677705,40.800169179841404],[-73.95798648386584,40.80015019698337],[-73.95804923765644,40.80013531297378],[-73.95811346053362,40.80012464199933],[-73.95817866068457,40.80011826492408],[-73.95824434513213,40.80011623109525],[-73.95831001262665,40.8001185547387],[-73.95831347378017,40.80011890808568],[-73.95871570591389,40.79956787524175],[-73.98133009614402,40.768570545225295],[-73.98123808195332,40.76848705359966],[-73.98118545775202,40.76841932444926],[-73.98115195644431,40.76835945259613],[-73.98112544508446,40.76829758816314],[-73.98110612842798,40.76823420215194],[-73.98109414963447,40.768169777259516],[-73.9810896032976,40.7681048051787],[-73.98109252005135,40.76803977759032],[-73.9811007331707,40.76798859251127],[-73.97356371467146,40.764790908111976],[-73.97348442714967,40.76489803996891],[-73.97342915132073,40.764975493995244],[-73.97339437472814,40.765019721429496],[-73.97335532572414,40.76505589915996],[-73.97331754093388,40.765084841619895],[-73.97325945618215,40.76511909773424],[-73.97316291266091,40.76515556460944],[-73.97310026726039,40.765173869853676],[-73.97304836939523,40.765182033400684],[-73.97298178026452,40.76517917311186],[-73.97293477688835,40.76516528531257],[-73.97266137523127,40.76505142406696],[-73.94964041300456,40.796574093058666],[-73.94966027066053,40.79657964611003],[-73.94969451546488,40.796591894350314],[-73.94972722411511,40.79660636344348],[-73.94975815022951,40.796622944322856],[-73.94978705573361,40.79664150991573],[-73.94981372270625,40.79666191965074],[-73.94983794745612,40.79668401765431],[-73.9498595452589,40.79670763635463],[-73.94987835272698,40.796732596482684],[-73.94989422662547,40.79675870617109],[-73.94990704505234,40.79678576725815],[-73.94991671099255,40.796813576189734],[-73.94992314995208,40.79684191951587],[-73.94992631587749,40.79687058019662],[-73.94992618167367,40.796899342100495],[-73.9499227498714,40.796927985506734],[-73.9499160455142,40.796956292504916],[-73.94991168879837,40.79696847977636],[-73.9577346065369,40.80026634044721]]],[[[-73.98152649705183,40.76802307430982],[-73.98152172440834,40.768067903315774],[-73.98152647218144,40.7681127347486],[-73.98154061753208,40.768156406037335],[-73.98156379361802,40.76819778698777],[-73.98159540024457,40.76823580499889],[-73.98163461925162,40.76826947658349],[-73.98168043464203,40.76829792898437],[-73.98173165981596,40.76832042539366],[-73.98178696836203,40.7683363829687],[-73.98184492721799,40.76834538814675],[-73.98188401526387,40.768347403322814],[-73.9818944714222,40.76834740136437],[-73.98192822559146,40.76834647374201],[-73.98198764224419,40.76833894493081],[-73.98204461856403,40.76832408380864],[-73.98209760045229,40.76830229536416],[-73.98214514273278,40.76827417371125],[-73.98218594824343,40.76824048678557],[-73.98221890456071,40.76820215293618],[-73.98224311243193,40.768160217515835],[-73.98225791183916,40.768115824067905],[-73.98226289740279,40.76807018551187],[-73.98225793615617,40.7680245445236],[-73.98225124515936,40.76800743482489],[-73.98224965319162,40.76800336790532],[-73.98223073403047,40.76796025337831],[-73.98220296293158,40.7679200046845],[-73.98216705975771,40.7678836629111],[-73.98212395284952,40.76785217192245],[-73.98207476126761,40.76782634503942],[-73.98202075689449,40.76780685152699],[-73.98196333956771,40.76779419768061],[-73.98192664498482,40.767789935249596],[-73.9819041140721,40.76778871513266],[-73.98188834356667,40.76778848572775],[-73.98184423753341,40.767790532834724],[-73.98183388540097,40.76779160010078],[-73.98183401685236,40.76779167126129],[-73.98178711518193,40.76779950904455],[-73.98173179833218,40.767815449106955],[-73.9816805611749,40.76783792924898],[-73.98163473041323,40.76786636616109],[-73.98159549303688,40.767900025228336],[-73.98156386552373,40.767938034032],[-73.98154066659129,40.76797940665797],[-73.98152649705183,40.76802307430982]]],[[[-73.97304071226627,40.764424570811926],[-73.97303227297947,40.76442632932234],[-73.97302283211106,40.76443005249765],[-73.97301162228216,40.76444429044435],[-73.97277505802141,40.76477712593461],[-73.97276398714631,40.764801740397736],[-73.97275654034252,40.764823674916116],[-73.97275257583085,40.764856572093514],[-73.97275881982605,40.76488842079662],[-73.9727699625696,40.7649198114001],[-73.97278414954339,40.76494735666869],[-73.97280769834984,40.764973551588355],[-73.97283772920368,40.76499983718142],[-73.97287000845722,40.76501923263906],[-73.9729058282767,40.765034590159736],[-73.97293964167237,40.76504439649114],[-73.97297069443596,40.76505096305189],[-73.97300551972523,40.765053885247944],[-73.97304645055472,40.765053642689864],[-73.97308692024221,40.76504857961144],[-73.97312817762493,40.76503741308614],[-73.97315986421941,40.765025908428775],[-73.97319141867068,40.76501017586548],[-73.97321528926402,40.76499355000836],[-73.97323873188421,40.76497203250891],[-73.97348609522722,40.764643937915295],[-73.97348805160128,40.76464145837723],[-73.97349070441938,40.764635909180996],[-73.97349393256032,40.764628082742185],[-73.97349432076263,40.76462280767854],[-73.97349394947568,40.764618314978215],[-73.97349232022077,40.764614256031436],[-73.97348916762942,40.76460783381134],[-73.97348394426174,40.764602687128914],[-73.97306734126109,40.76442796023407],[-73.973061256795,40.764426024528696],[-73.97305653399968,40.76442494191887],[-73.97305075704291,40.764424057173116],[-73.97304071226627,40.764424570811926]]]]}},{"type":"Feature","properties":{"name":"Prospect Park"},"geometry":{"type":"MultiPolygon","coordinates":[[[[-73.96881026705002,40.6718894604612],[-73.96899390422477,40.672133540731444],[-73.96918566545467,40.672388416452854],[-73.96920041919765,40.67240802642096],[-73.96922067399016,40.67243494734108],[-73.96922378856743,40.67243908784274],[-73.96926982452436,40.6724094668939],[-73.96934079447064,40.67237002795273],[-73.96941588043092,40.67233528624881],[-73.96949454770903,40.672305490174566],[-73.96957623442601,40.672280852996195],[-73.96951948617897,40.67190023159976],[-73.96951529364749,40.671873906626246],[-73.9696476078578,40.671863487527965],[-73.96977001996255,40.67185384732331],[-73.96983832906436,40.67184846756326],[-73.96984832624231,40.67190675963727],[-73.96986173958952,40.671984977405806],[-73.96990494067222,40.67223688354323],[-73.9699973589356,40.67223910403803],[-73.97008915229509,40.6722475612646],[-73.97017959816156,40.67226218749859],[-73.9702679834272,40.67228286819337],[-73.97035360801338,40.67230943927948],[-73.97037871687942,40.67227571784936],[-73.97038440326453,40.672268080242546],[-73.97071908584184,40.67181859267088],[-73.97077349445584,40.67174551888384],[-73.97081539436712,40.67169451803051],[-73.97152849989828,40.670775801854816],[-73.97225004644172,40.669911693160074],[-73.97401336084685,40.66780163142269],[-73.97446744821376,40.66724882634669],[-73.97863960767101,40.662252578236114],[-73.97917445878002,40.661603743544134],[-73.97936302930086,40.66137498333822],[-73.9793626935068,40.66137101560285],[-73.97943027257423,40.6612874615888],[-73.97939915621018,40.66125827928963],[-73.97937156679038,40.66122710747328],[-73.97934772300405,40.66119419202254],[-73.9793231447431,40.66115030994604],[-73.97930521761401,40.66110459741048],[-73.97929416728583,40.661057637994254],[-73.97929013664455,40.661010029667835],[-73.97929317633547,40.66096237938921],[-73.97930324831489,40.66091529229805],[-73.97932022348671,40.66086936991415],[-73.97923236108046,40.66082689203388],[-73.97879459605862,40.66061519530515],[-73.97835683854684,40.66040349240357],[-73.97796738168442,40.66021507994596],[-73.97488962799628,40.65872278496233],[-73.97472666086495,40.658643311093805],[-73.9746161555952,40.658586953139164],[-73.9745004757164,40.658512707868645],[-73.9744001969469,40.65843476478618],[-73.9743116859743,40.658351876805476],[-73.9742571619203,40.658290557438725],[-73.97420816106475,40.6582268186953],[-73.97413590859698,40.65810999734847],[-73.97409032751386,40.65800411694029],[-73.97400819636805,40.65773146156142],[-73.97396333379395,40.65757635991396],[-73.97391580281949,40.65756588874215],[-73.9738711747171,40.65754961437942],[-73.97383066253045,40.65752797925894],[-73.97379536572512,40.65750157077236],[-73.97376624418017,40.65747110595478],[-73.9737440874508,40.657437413466546],[-73.97372949822531,40.65740140657333],[-73.97372287223209,40.65736406332959],[-73.97372438879219,40.657326398660146],[-73.97373400728553,40.65728943554249],[-73.97375146716328,40.65725417709083],[-73.97377629268962,40.657221581343116],[-73.97380781069086,40.6571925333493],[-73.97384516593758,40.657167821762215],[-73.97376611618215,40.65689452301478],[-73.97372618946065,40.65675650879232],[-73.97367087541456,40.65656532991881],[-73.97358216790086,40.6562587322016],[-73.97322870980074,40.65503705776614],[-73.97264229124544,40.653010091605175],[-73.97250607370955,40.65253923356902],[-73.97245006296731,40.65234562155066],[-73.9723248708826,40.65191286769459],[-73.97225547955394,40.651672997271035],[-73.97218571945724,40.65167508403039],[-73.9720971065656,40.65167166671541],[-73.9720093903812,40.65166149386884],[-73.97192345883957,40.65164466656753],[-73.97184017737935,40.65162135612556],[-73.97176038894409,40.65159179779062],[-73.9716848986109,40.651556288938885],[-73.97161446886044,40.651515189073386],[-73.97154981012031,40.6514689126171],[-73.97149157603587,40.651417928010765],[-73.97144035519746,40.65136274870511],[-73.97139666404615,40.65130393315869],[-73.96943042352741,40.65206792160188],[-73.96550383526703,40.653593457005684],[-73.96316628162302,40.65450153320794],[-73.96248161246446,40.65476749486724],[-73.96247994434694,40.6548279856595],[-73.96246938592878,40.6548879530519],[-73.9624500700424,40.65494664155149],[-73.96242223947797,40.655003311908736],[-73.96238624698003,40.65505725012271],[-73.96234254341914,40.65510777644313],[-73.96229168015277,40.6551542543764],[-73.96223429956112,40.655196099688446],[-73.96217112203966,40.65523278310252],[-73.96212731680119,40.65525364087157],[-73.96236240946239,40.656729623060144],[-73.96256116726666,40.65793503332967],[-73.96296375219673,40.66053396285604],[-73.96307263076562,40.66120346612363],[-73.96308155194083,40.6612565607349],[-73.96309048613855,40.66130965444881],[-73.96309940970228,40.661362758063966],[-73.96310833210069,40.661415856274644],[-73.9631172545197,40.661468942777546],[-73.96312617812904,40.66152204098654],[-73.96313509938798,40.66157513829322],[-73.9631440218432,40.661628236499816],[-73.96315294431356,40.66168133290436],[-73.9631618668031,40.66173442030266],[-73.96317078930093,40.66178751850619],[-73.96317971181293,40.661840616708666],[-73.96318863434016,40.661893713109116],[-73.96319755688104,40.661946810409056],[-73.96320635685707,40.66199917284737],[-73.96321288554572,40.6620294295835],[-73.96321829469046,40.66206125195904],[-73.96322229537047,40.66209318194593],[-73.96322487340328,40.662125201529314],[-73.96322577697521,40.662189358204415],[-73.963224090732,40.66222140974328],[-73.96322098191273,40.662253406796204],[-73.96321645290875,40.662285298034355],[-73.96321058197688,40.662316701663755],[-73.96320516457835,40.66234268883212],[-73.9631906400746,40.66239491413179],[-73.9631816230873,40.66242070473488],[-73.96317170747362,40.662444137497765],[-73.96316011754162,40.662471524791194],[-73.96313409648721,40.66252109528055],[-73.96311943599297,40.66254533878365],[-73.96310367592866,40.66256919380958],[-73.96308702339424,40.66259238216488],[-73.96306188870774,40.66262567428865],[-73.96303536829097,40.6626585175044],[-73.96300761004676,40.66269075877099],[-73.96294853509897,40.662753232886836],[-73.96290980428104,40.662791041188484],[-73.96287146624732,40.66282845607804],[-73.96283312934817,40.66286587996021],[-73.96279479477812,40.66290329122299],[-73.96276956059802,40.662927921183645],[-73.96271976897563,40.66297652032858],[-73.96270286967076,40.662998600011754],[-73.96269019309716,40.66302312056055],[-73.96267705126334,40.66304854237374],[-73.96266517946982,40.66310146906526],[-73.9626649856918,40.66317512852924],[-73.96268347407408,40.66324033460513],[-73.96272830088654,40.66330926564486],[-73.9627399925414,40.66332052408419],[-73.9633447581005,40.664200730700436],[-73.96358974462619,40.66455728951008],[-73.96375717432979,40.664800968000186],[-73.96561854438609,40.66747350966295],[-73.96643171859606,40.66861696080661],[-73.96701456426722,40.66942049557235],[-73.96705899074875,40.66948174425974],[-73.96720926254136,40.669688910265336],[-73.96745289213094,40.67002570110671],[-73.96763448821453,40.67027774358327],[-73.96781608567109,40.67052978486504],[-73.96796739803742,40.67073979217085],[-73.96819930171347,40.671061648477405],[-73.96843656414805,40.67139093772688],[-73.96865136050928,40.67167824913678],[-73.96867498940337,40.67170965474044],[-73.96881026705002,40.6718894604612]]]]}}]}